H-2A R/B                
1 28932U 06002B   26191.51779325  .00006037  00000+0  28784-3 0  9997
2 28932  98.2582 349.4657 0050522 181.8998 178.2050 15.18397978113068
RESURS-DK 1             
1 29228U 06021A   26190.24541127  .00001215  00000+0  74141-4 0  9995
2 29228  69.9328 282.4503 0006781 277.8398  82.1999 15.13306588105916
CZ-4B R/B               
1 29507U 06046C   26191.52398194  .00002744  00000+0  13682-3 0  9998
2 29507  97.5443 236.0591 0032128 198.4310 161.5762 15.17958351 78676
CZ-2C R/B               
1 31114U 07010B   26190.25116606  .00000044  00000+0  39518-4 0  9990
2 31114  98.4114 297.5248 0057908 301.3979  58.1542 14.20280908996976
COSMO-SKYMED 1          
1 31598U 07023A   26191.59395884  .00001319  00000+0  11925-3 0  9992
2 31598  97.8844  23.6478 0001082  97.6675 262.4670 14.97206089 33299
COSMOS 2428             
1 31792U 07029A   26190.51520218  .00000159  00000+0  11084-3 0  9993
2 31792  70.9381 307.5965 0007171  92.2746 267.9197 14.12931512981304
SL-16 R/B               
1 31793U 07029B   26191.22230965 -.00000075  00000+0 -14250-4 0  9998
2 31793  70.9750 274.8067 0002090 257.2336 133.5734 14.14850723982703
KORONAS-FOTON           
1 33504U 09003A   26190.79768631  .00009555  00000+0  19314-3 0  9996
2 33504  82.4294 148.6652 0012476  78.8517 281.4133 15.46211676964598
CZ-2C R/B               
1 37731U 11030B   26191.35946575  .00000702  00000+0  94536-4 0  9998
2 37731  97.8667 146.3297 0051088 312.2886 199.7792 14.81526536808258
H-2A R/B                
1 38341U 12025E   26191.50345159  .00001201  00000+0  11197-3 0  9995
2 38341  98.4849 168.5749 0042283 271.0239  88.6136 14.95829792766575
SHIJIAN-16 (SJ-16)      
1 39358U 13057A   26191.63155096  .00001305  00000+0  12915-3 0  9997
2 39358  74.9735 312.2781 0015977 175.8576 184.2748 14.92663743689841
SL-4 R/B                
1 39679U 14021B   26191.13268538  .00007771  00000+0  16183-3 0  9990
2 39679  51.6056  98.3228 0089998 189.8462 170.0762 15.42416724675155
ALOS-2                  
1 39766U 14029A   26191.60776957  .00000617  00000+0  89463-4 0  9990
2 39766  97.9221 288.4371 0001624  91.8420 268.2978 14.79475034655049
YAOGAN-29               
1 41038U 15069A   26191.58908543  .00000757  00000+0  99516-4 0  9990
2 41038  98.0028 220.2579 0001131  20.8823 339.2437 14.83106640574090
ASTRO-H (HITOMI)        
1 41337U 16012A   26191.49201072  .00001745  00000+0  97284-4 0  9992
2 41337  30.9996 283.6687 0009565 127.9678 232.1825 15.10620801570819
HXMT (HUIYAN)           
1 42758U 17034A   26191.61599554  .00003179  00000+0  16012-3 0  9996
2 42758  43.0149  52.5656 0032686 292.7998  66.9399 15.18663013501225
SAOCOM 1A               
1 43641U 18076A   26191.56217991  .00000380  00000+0  54338-4 0  9996
2 43641  97.8893  17.9714 0001483  84.0170 276.1212 14.82146580419564
H-2A R/B                
1 43682U 18084L   26191.11105830  .00016036  00000+0  32750-3 0  9997
2 43682  98.8546  75.0238 0020751 319.4603  40.5095 15.46067255424667
SAOCOM 1B               
1 46265U 20059A   26191.59341844 -.00000077  00000+0 -30817-5 0  9995
2 46265  97.8897  17.0981 0001537  81.5791 278.5596 14.82154616316950
CSS (TIANHE)            
1 48274U 21035A   26191.59979599  .00001397  00000+0  22374-4 0  9998
2 48274  41.4687 179.6858 0002649 286.3424  73.7123 15.58017112296822
COSMOS 2550             
1 48865U 21056A   26191.62946124  .00000629  00000+0  24970-4 0  9990
2 48865  67.1431  28.9950 0008454 271.6004  88.4182 15.33796729282318
CZ-2C R/B               
1 52794U 22058K   26191.00643723  .00033849  00000+0  35317-3 0  9996
2 52794  50.1859  44.6364 0030619   1.0479 359.0554 15.63552330229214
CZ-2C R/B               
1 54039U 22132E   26190.99135490  .00055194  00000+0  37901-3 0  9995
2 54039  97.2898 199.0795 0010409   4.6583 355.4777 15.74465025209532
GSLV R/B                
1 54149U 22138AN  26190.23907571  .00002182  00000+0  18439-3 0  9991
2 54149  87.3814 125.5791 0024040  71.8269 288.5577 14.97366438202118
XRISM                   
1 57800U 23137A   26191.41934508  .00002427  00000+0  12993-3 0  9990
2 57800  31.0008 209.0912 0007815 198.8570 161.1780 15.12649774156389
ACS3                    
1 59588U 24077B   26191.16291775  .00019046  00000+0  13257-1 0  9990
2 59588  97.1735 104.8549 0117764  42.7288 318.2962 13.95378034111240
SPACEMOBILE-003         
1 61045U 24163A   26191.15284552  .00000447  00000+0  34676-4 0  9997
2 61045  52.9663 203.8314 0005319 179.8371 180.2626 15.20788598101262
SPACEMOBILE-005         
1 61046U 24163B   26191.46492692  .00003906  00000+0  18962-3 0  9990
2 61046  52.9790 202.3393 0008778 181.1701 178.9274 15.20764248101304
SPACEMOBILE-001         
1 61047U 24163C   26191.06904487  .00000518  00000+0  37895-4 0  9990
2 61047  52.9749 203.8741 0007553 178.7608 181.3406 15.20815495101249
SPACEMOBILE-002         
1 61048U 24163D   26191.38159234  .00012242  00000+0  56055-3 0  9993
2 61048  52.9822 202.4780 0006213 190.6571 169.4293 15.20876875101299
