OBJECT_NAME,OBJECT_ID,EPOCH,MEAN_MOTION,ECCENTRICITY,INCLINATION,RA_OF_ASC_NODE,ARG_OF_PERICENTER,MEAN_ANOMALY,EPHEMERIS_TYPE,CLASSIFICATION_TYPE,NORAD_CAT_ID,ELEMENT_SET_NO,REV_AT_EPOCH,BSTAR,MEAN_MOTION_DOT,MEAN_MOTION_DDOT
H-2A R/B,2006-002B,2026-07-10T12:25:37.336800,15.18397978,.0050522,98.2582,349.4657,181.8998,178.2050,0,U,28932,999,11306,.2878438E-3,.6037E-4,0
RESURS-DK 1,2006-021A,2026-07-09T05:53:23.533728,15.13306588,.00067816,69.9328,282.4503,277.8398,82.1999,0,U,29228,999,10591,.74140722E-4,.1215E-4,0
CZ-4B R/B,2006-046C,2026-07-10T12:34:32.039616,15.17958351,.00321289,97.5443,236.0591,198.4310,161.5762,0,U,29507,999,7867,.13681987E-3,.2744E-4,0
CZ-2C R/B,2007-010B,2026-07-09T06:01:40.747584,14.20280908,.00579085,98.4114,297.5248,301.3979,58.1542,0,U,31114,999,99697,.3951846E-4,.44E-6,0
COSMO-SKYMED 1,2007-023A,2026-07-10T14:15:18.043776,14.97206089,.00010823,97.8844,23.6478,97.6675,262.4670,0,U,31598,999,3329,.11924993E-3,.1319E-4,0
COSMOS 2428,2007-029A,2026-07-09T12:21:53.468352,14.12931512,.00071712,70.9381,307.5965,92.2746,267.9197,0,U,31792,999,98130,.11084189E-3,.159E-5,0
SL-16 R/B,2007-029B,2026-07-10T05:20:07.553760,14.14850723,.00020909,70.9750,274.8067,257.2336,133.5734,0,U,31793,999,98270,-.14250226E-4,-.75E-6,0
KORONAS-FOTON,2009-003A,2026-07-09T19:08:40.097184,15.46211676,.00124762,82.4294,148.6652,78.8517,281.4133,0,U,33504,999,96459,.19314485E-3,.9555E-4,0
CZ-2C R/B,2011-030B,2026-07-10T08:37:37.840800,14.81526536,.0051088,97.8667,146.3297,312.2886,199.7792,0,U,37731,999,80825,.94535903E-4,.702E-5,0
H-2A R/B,2012-025E,2026-07-10T12:04:58.217376,14.95829792,.0042283,98.4849,168.5749,271.0239,88.6136,0,U,38341,999,76657,.11196966E-3,.1201E-4,0
SHIJIAN-16 (SJ-16),2013-057A,2026-07-10T15:09:26.002944,14.92663743,.00159779,74.9735,312.2781,175.8576,184.2748,0,U,39358,999,68984,.12914732E-3,.1305E-4,0
SL-4 R/B,2014-021B,2026-07-10T03:11:04.016832,15.42416724,.00899984,51.6056,98.3228,189.8462,170.0762,0,U,39679,999,67515,.16183096E-3,.7771E-4,0
ALOS-2,2014-029A,2026-07-10T14:35:11.290848,14.79475034,.0001624,97.9221,288.4371,91.8420,268.2978,0,U,39766,999,65504,.89463211E-4,.617E-5,0
YAOGAN-29,2015-069A,2026-07-10T14:08:16.981152,14.83106640,.00011314,98.0028,220.2579,20.8823,339.2437,0,U,41038,999,57409,.99515924E-4,.757E-5,0
ASTRO-H (HITOMI),2016-012A,2026-07-10T11:48:29.726208,15.10620801,.00095658,30.9996,283.6687,127.9678,232.1825,0,U,41337,999,57081,.97283675E-4,.1745E-4,0
HXMT (HUIYAN),2017-034A,2026-07-10T14:47:02.014656,15.18663013,.00326869,43.0149,52.5656,292.7998,66.9399,0,U,42758,999,50122,.16011875E-3,.3179E-4,0
SAOCOM 1A,2018-076A,2026-07-10T13:29:32.344224,14.82146580,.00014835,97.8893,17.9714,84.0170,276.1212,0,U,43641,999,41956,.54338033E-4,.38E-5,0
H-2A R/B,2018-084L,2026-07-10T02:39:55.437120,15.46067255,.00207514,98.8546,75.0238,319.4603,40.5095,0,U,43682,999,42466,.32750323E-3,.16036E-3,0
SAOCOM 1B,2020-059A,2026-07-10T14:14:31.353216,14.82154616,.00015374,97.8897,17.0981,81.5791,278.5596,0,U,46265,999,31695,-.3081714E-5,-.77E-6,0
CSS (TIANHE),2021-035A,2026-07-10T14:23:42.373536,15.58017112,.00026499,41.4687,179.6858,286.3424,73.7123,0,U,48274,999,29682,.22373976E-4,.1397E-4,0
COSMOS 2550,2021-056A,2026-07-10T15:06:25.451136,15.33796729,.00084546,67.1431,28.9950,271.6004,88.4182,0,U,48865,999,28231,.24970197E-4,.629E-5,0
CZ-2C R/B,2022-058K,2026-07-10T00:09:16.176672,15.63552330,.00306198,50.1859,44.6364,1.0479,359.0554,0,U,52794,999,22921,.35317433E-3,.33849E-3,0
CZ-2C R/B,2022-132E,2026-07-09T23:47:33.063360,15.74465025,.00104097,97.2898,199.0795,4.6583,355.4777,0,U,54039,999,20953,.37901472E-3,.55194E-3,0
GSLV R/B,2022-138AN,2026-07-09T05:44:16.141344,14.97366438,.002404,87.3814,125.5791,71.8269,288.5577,0,U,54149,999,20211,.18438878E-3,.2182E-4,0
XRISM,2023-137A,2026-07-10T10:03:51.414912,15.12649774,.00078158,31.0008,209.0912,198.8570,161.1780,0,U,57800,999,15638,.12992678E-3,.2427E-4,0
ACS3,2024-077B,2026-07-10T03:54:36.093600,13.95378034,.01177649,97.1735,104.8549,42.7288,318.2962,0,U,59588,999,11124,.13256571E-1,.19046E-3,0
SPACEMOBILE-003,2024-163A,2026-07-10T03:40:05.852928,15.20788598,.00053194,52.9663,203.8314,179.8371,180.2626,0,U,61045,999,10126,.34676467E-4,.447E-5,0
SPACEMOBILE-005,2024-163B,2026-07-10T11:09:29.685888,15.20764248,.0008778,52.9790,202.3393,181.1701,178.9274,0,U,61046,999,10130,.18962143E-3,.3906E-4,0
SPACEMOBILE-001,2024-163C,2026-07-10T01:39:25.476768,15.20815495,.00075534,52.9749,203.8741,178.7608,181.3406,0,U,61047,999,10124,.37894656E-4,.518E-5,0
SPACEMOBILE-002,2024-163D,2026-07-10T09:09:29.578176,15.20876875,.00062135,52.9822,202.4780,190.6571,169.4293,0,U,61048,999,10129,.56054877E-3,.12242E-3,0
